SABZ31 SBBR 112000
METAR SBAR 112000Z 10011KT 9999 FEW020 SCT070 29/23 Q1009=
METAR SBFN 112000Z AUTO 14010KT 9999 FEW020 28/23 Q1009=
METAR SBFZ 112000Z 09010KT 9999 SCT025 29/24 Q1008=
METAR SBIL 112000Z 13006KT 9999 FEW020 30/25 Q1010=
METAR SBJP 112000Z 10010KT 9999 SCT030 28/23 Q1010=
METAR SBJU 112000Z 00000KT 9999 BKN022 30/23 Q1010=
METAR SBKG 112000Z 10012KT 9999 FEW025 27/20 Q1012=
METAR SBLE 112000Z AUTO 11004KT CAVOK 30/19 Q1012=
METAR SBMO 112000Z 10011KT 9999 FEW033 29/23 Q1010=
METAR SBMS 112000Z 02015KT 9999 SCT025 30/25 Q1008=
METAR SBNT 112000Z 11011KT 9999 FEW025 29/23 Q1009=
METAR SBPB 112000Z 06011KT 9999 SCT016 BKN100 29/25 Q1009=
METAR SBPL 112000Z 11005KT 9999 FEW030 31/20 Q1010=
METAR SBPS 112000Z 07007KT 9999 FEW018 27/23 Q1011=
METAR SBRF 112000Z 10007KT 060V140 9999 SCT023 29/23 Q1010=
METAR SBSL 112000Z 06014KT 9999 SCT020 FEW025TCU SCT100 29/25
Q1007=
METAR SBSV 112000Z 12008KT 9999 SCT023 29/22 Q1010=
METAR SBTE 112000Z 27006KT 9999 BKN020 31/25 Q1007=
METARSBUF 112000Z AUTO 13006KT CAVOK 32/19 Q1009=