000 
FTXX01 KWBC 070200
TAF AMD
WBCF 070244Z 0703/0803 18012KT P6SM SCT050
