SPUS80 KWBC 110126
SPECI
PAJN 110122Z 25003KT 1SM R08/2600V4000FT -SN BR FEW008 BKN014
     OVC027 M05/M06 A2978 RMK AO2 P0002 T10501061 $=
KAST 110122Z AUTO 20010KT 10SM FEW019 BKN025 BKN036 07/04 A3022
     RMK AO2 T00670044=
KDRT 110123Z AUTO 10SM SCT033 SCT090 BKN120 22/18 A2965 RMK AO2
     TSB0055E18 PRESFR T02170183 PWINO=
KSBN 110123Z 17023G39KT 9SM SCT020 SCT055 21/17 A2970 RMK AO2 PK
     WND 16039/0115 LTG DSNT S AND SW T02060167=
KUIL 110123Z AUTO 00000KT 7SM FEW015 BKN028 OVC033 04/04 A3015 RMK
     AO2 T00440039 PWINO $=
KSMP 110124Z AUTO 00000KT 1 1/4SM -SN BR BKN003 OVC027 M03/M03
     A3006 RMK AO2 P0000 T10331033 $=