SAGU31 MGGT 110000

MGMM 110000Z 34004KT 9999 BKN020 26/25 Q1014 A2994=
MGHT 110000Z 09008KT 9999 FEW028 23/07=
MGPB 110000Z 00000KT 9999 SCT020 27/23 Q1012 A2988=
MGGT 110000Z 03012KT 9999 SCT022 23/13 Q1020 A3012=
MGSJ 110000Z 22004KT 8000 SKC 31/// Q1010 A2983 RMK HZ=
MGRT 110000Z 25008KT 8000 BKN020 30/23 Q1012 A2988 RMK FU VOLC STA MARIA Y SATGO EN ACTV=
MGQZ 110000Z 00000KT 9999 FEW018 SCT200 18/13 QFE 772.9=
MGCB 110000Z 05004KT 9999 SCT018 22/17 QFE 871.2=
MGZA 110000Z 09014KT CAVOK 30/18 QFE 987.3=
MGES 110000Z 03006KT 9999 SCT018 25/17 QFE 909.8=
MGMT 110000Z 00000KT CAVOK 30/26=
MGTU 110000Z 32004KT 8000 SCT018 32/23 HZ=