FTXX60 KWBC 110130
TAF
TAF COR KSVN 110127Z 1101/1207 17006KT 9999 SKC QNH3008INS
      BECMG 1117/1118 22009KT 9999 BKN060 QNH3004INS TX29/1117Z
      TN17/1110Z=