FTAU31 KWBC 110012
TAF
TAF AMD YPEA 110011Z 1101/1118 12014G24KT 9999 FEW030
     FM110400 13012G22KT CAVOK
     FM111000 13010KT CAVOK=